{
  "type": "FeatureCollection",
  "features": [
    {
      "type": "Feature",
      "properties": {
        "norad_id": 34765,
        "name": "IRIDIUM 33 DEB",
        "group": "iridium-33-debris",
        "lat": 10.197536058736672,
        "lon": 34.00750522588853,
        "alt_km": 768.4170712661644,
        "timestamp": "2025-12-11T08:58:27.510408+00:00",
        "meta_object_name": "IRIDIUM 33 DEB",
        "meta_object_id": "1997-051LJ",
        "meta_epoch": "2025-12-11T02:23:38.251392",
        "meta_mean_motion": 14.40458426,
        "meta_eccentricity": 0.0015267,
        "meta_inclination": 86.3395,
        "meta_ra_of_asc_node": 33.4653,
        "meta_arg_of_pericenter": 217.1303,
        "meta_mean_anomaly": 172.2223,
        "meta_ephemeris_type": 0,
        "meta_classification_type": "U",
        "meta_norad_cat_id": 34765,
        "meta_element_set_no": 999,
        "meta_rev_at_epoch": 87590,
        "meta_bstar": 0.00060872,
        "meta_mean_motion_dot": 1.956e-05,
        "meta_mean_motion_ddot": 0,
        "tle_line1": "1 34765U 97051LJ  25345.09974828  .00001956  00000+0  60872-3 0  9999",
        "tle_line2": "2 34765  86.3395  33.4653 0015267 217.1303 172.2223 14.40458426875909"
      },
      "geometry": {
        "type": "Point",
        "coordinates": [
          34.00750522588853,
          10.197536058736672
        ]
      }
    },
    {
      "type": "Feature",
      "properties": {
        "norad_id": 34833,
        "name": "IRIDIUM 33 DEB",
        "group": "iridium-33-debris",
        "lat": 56.88626630661856,
        "lon": 57.13281452854037,
        "alt_km": 701.7164562585276,
        "timestamp": "2025-12-11T08:58:27.510418+00:00",
        "meta_object_name": "IRIDIUM 33 DEB",
        "meta_object_id": "1997-051MH",
        "meta_epoch": "2025-12-10T23:03:13.627296",
        "meta_mean_motion": 14.52360033,
        "meta_eccentricity": 0.0021807,
        "meta_inclination": 86.3925,
        "meta_ra_of_asc_node": 51.7603,
        "meta_arg_of_pericenter": 104.0479,
        "meta_mean_anomaly": 313.4117,
        "meta_ephemeris_type": 0,
        "meta_classification_type": "U",
        "meta_norad_cat_id": 34833,
        "meta_element_set_no": 999,
        "meta_rev_at_epoch": 87689,
        "meta_bstar": 0.0011953,
        "meta_mean_motion_dot": 4.899e-05,
        "meta_mean_motion_ddot": 0,
        "tle_line1": "1 34833U 97051MH  25344.96057439  .00004899  00000+0  11953-2 0  9994",
        "tle_line2": "2 34833  86.3925  51.7603 0021807 104.0479 313.4117 14.52360033876896"
      },
      "geometry": {
        "type": "Point",
        "coordinates": [
          57.13281452854037,
          56.88626630661856
        ]
      }
    },
    {
      "type": "Feature",
      "properties": {
        "norad_id": 34870,
        "name": "IRIDIUM 33 DEB",
        "group": "iridium-33-debris",
        "lat": -86.01635421509405,
        "lon": -113.18540823408259,
        "alt_km": 647.0106645468222,
        "timestamp": "2025-12-11T08:58:27.510429+00:00",
        "meta_object_name": "IRIDIUM 33 DEB",
        "meta_object_id": "1997-051MQ",
        "meta_epoch": "2025-12-10T16:16:47.325792",
        "meta_mean_motion": 14.76360658,
        "meta_eccentricity": 0.00158788,
        "meta_inclination": 86.3108,
        "meta_ra_of_asc_node": 315.0279,
        "meta_arg_of_pericenter": 190.0668,
        "meta_mean_anomaly": 346.5866,
        "meta_ephemeris_type": 0,
        "meta_classification_type": "U",
        "meta_norad_cat_id": 34870,
        "meta_element_set_no": 999,
        "meta_rev_at_epoch": 88880,
        "meta_bstar": 0.0023954817,
        "meta_mean_motion_dot": 0.00016709,
        "meta_mean_motion_ddot": 0,
        "tle_line1": "1 34870U 97051MQ  25344.67832553  .00016709  00000+0  23955-2 0  9999",
        "tle_line2": "2 34870  86.3108 315.0279 0015878 190.0668 346.5866 14.76360658888802"
      },
      "geometry": {
        "type": "Point",
        "coordinates": [
          -113.18540823408259,
          -86.01635421509405
        ]
      }
    },
    {
      "type": "Feature",
      "properties": {
        "norad_id": 34896,
        "name": "IRIDIUM 33 DEB",
        "group": "iridium-33-debris",
        "lat": 17.83684006524503,
        "lon": 146.11447134512204,
        "alt_km": 664.4977915159561,
        "timestamp": "2025-12-11T08:58:27.510439+00:00",
        "meta_object_name": "IRIDIUM 33 DEB",
        "meta_object_id": "1997-051MY",
        "meta_epoch": "2025-12-10T06:18:53.078976",
        "meta_mean_motion": 14.66236202,
        "meta_eccentricity": 0.0024107,
        "meta_inclination": 86.3294,
        "meta_ra_of_asc_node": 327.796,
        "meta_arg_of_pericenter": 223.7133,
        "meta_mean_anomaly": 198.9285,
        "meta_ephemeris_type": 0,
        "meta_classification_type": "U",
        "meta_norad_cat_id": 34896,
        "meta_element_set_no": 999,
        "meta_rev_at_epoch": 87583,
        "meta_bstar": 0.0014714,
        "meta_mean_motion_dot": 8.162e-05,
        "meta_mean_motion_ddot": 0,
        "tle_line1": "1 34896U 97051MY  25344.26311434  .00008162  00000+0  14714-2 0  9999",
        "tle_line2": "2 34896  86.3294 327.7960 0024107 223.7133 198.9285 14.66236202875838"
      },
      "geometry": {
        "type": "Point",
        "coordinates": [
          146.11447134512204,
          17.83684006524503
        ]
      }
    },
    {
      "type": "Feature",
      "properties": {
        "norad_id": 34926,
        "name": "IRIDIUM 33 DEB",
        "group": "iridium-33-debris",
        "lat": -52.554337903790795,
        "lon": 3.837707457774508,
        "alt_km": 665.779756634759,
        "timestamp": "2025-12-11T08:58:27.510450+00:00",
        "meta_object_name": "IRIDIUM 33 DEB",
        "meta_object_id": "1997-051NF",
        "meta_epoch": "2025-12-11T01:05:29.819328",
        "meta_mean_motion": 14.54283993,
        "meta_eccentricity": 0.0075707,
        "meta_inclination": 86.1321,
        "meta_ra_of_asc_node": 9.0582,
        "meta_arg_of_pericenter": 298.5987,
        "meta_mean_anomaly": 90.146,
        "meta_ephemeris_type": 0,
        "meta_classification_type": "U",
        "meta_norad_cat_id": 34926,
        "meta_element_set_no": 999,
        "meta_rev_at_epoch": 86432,
        "meta_bstar": 0.0083538,
        "meta_mean_motion_dot": 0.00036974,
        "meta_mean_motion_ddot": 0,
        "tle_line1": "1 34926U 97051NF  25345.04548402  .00036974  00000+0  83538-2 0  9999",
        "tle_line2": "2 34926  86.1321   9.0582 0075707 298.5987  90.1460 14.54283993864326"
      },
      "geometry": {
        "type": "Point",
        "coordinates": [
          3.837707457774508,
          -52.554337903790795
        ]
      }
    },
    {
      "type": "Feature",
      "properties": {
        "norad_id": 34985,
        "name": "IRIDIUM 33 DEB",
        "group": "iridium-33-debris",
        "lat": 47.10271797270029,
        "lon": -126.45570088377741,
        "alt_km": 748.2556681427468,
        "timestamp": "2025-12-11T08:58:27.510466+00:00",
        "meta_object_name": "IRIDIUM 33 DEB",
        "meta_object_id": "1997-051NR",
        "meta_epoch": "2025-12-11T05:16:50.812320",
        "meta_mean_motion": 14.41999117,
        "meta_eccentricity": 0.0020588,
        "meta_inclination": 86.3697,
        "meta_ra_of_asc_node": 57.5278,
        "meta_arg_of_pericenter": 225.008,
        "meta_mean_anomaly": 189.5242,
        "meta_ephemeris_type": 0,
        "meta_classification_type": "U",
        "meta_norad_cat_id": 34985,
        "meta_element_set_no": 999,
        "meta_rev_at_epoch": 87153,
        "meta_bstar": 0.0010472,
        "meta_mean_motion_dot": 3.461e-05,
        "meta_mean_motion_ddot": 0,
        "tle_line1": "1 34985U 97051NR  25345.22003255  .00003461  00000+0  10472-2 0  9998",
        "tle_line2": "2 34985  86.3697  57.5278 0020588 225.0080 189.5242 14.41999117871535"
      },
      "geometry": {
        "type": "Point",
        "coordinates": [
          -126.45570088377741,
          47.10271797270029
        ]
      }
    },
    {
      "type": "Feature",
      "properties": {
        "norad_id": 35051,
        "name": "IRIDIUM 33 DEB",
        "group": "iridium-33-debris",
        "lat": 37.95826022788163,
        "lon": 12.331567394730085,
        "alt_km": 726.5856411676996,
        "timestamp": "2025-12-11T08:58:27.510488+00:00",
        "meta_object_name": "IRIDIUM 33 DEB",
        "meta_object_id": "1997-051NX",
        "meta_epoch": "2025-12-10T01:16:41.683872",
        "meta_mean_motion": 14.47578215,
        "meta_eccentricity": 0.00106632,
        "meta_inclination": 86.3242,
        "meta_ra_of_asc_node": 10.0324,
        "meta_arg_of_pericenter": 98.47,
        "meta_mean_anomaly": 261.7712,
        "meta_ephemeris_type": 0,
        "meta_classification_type": "U",
        "meta_norad_cat_id": 35051,
        "meta_element_set_no": 999,
        "meta_rev_at_epoch": 86957,
        "meta_bstar": 0.00086361177,
        "meta_mean_motion_dot": 3.199e-05,
        "meta_mean_motion_ddot": 0,
        "tle_line1": "1 35051U 97051NX  25344.05326023  .00003199  00000+0  86361-3 0  9993",
        "tle_line2": "2 35051  86.3242  10.0324 0010663  98.4700 261.7712 14.47578215869570"
      },
      "geometry": {
        "type": "Point",
        "coordinates": [
          12.331567394730085,
          37.95826022788163
        ]
      }
    }
  ]
}